[{"OBJECT_NAME":"STARLINK-5224","OBJECT_ID":"2023-014G","EPOCH":"2026-03-09T22:49:25.675104","MEAN_MOTION":14.98330577,"ECCENTRICITY":0.00030454,"INCLINATION":70.0006,"RA_OF_ASC_NODE":43.9524,"ARG_OF_PERICENTER":269.1917,"MEAN_ANOMALY":90.8893,"EPHEMERIS_TYPE":0,"CLASSIFICATION_TYPE":"U","NORAD_CAT_ID":55397,"ELEMENT_SET_NO":999,"REV_AT_EPOCH":17258,"BSTAR":-3.322339e-6,"MEAN_MOTION_DOT":-1.33e-6,"MEAN_MOTION_DDOT":0},{"OBJECT_NAME":"CZ-2C DEB","OBJECT_ID":"2013-035D","EPOCH":"2026-03-09T23:34:49.287360","MEAN_MOTION":14.88810695,"ECCENTRICITY":0.00555667,"INCLINATION":97.8149,"RA_OF_ASC_NODE":69.2801,"ARG_OF_PERICENTER":125.3803,"MEAN_ANOMALY":235.2624,"EPHEMERIS_TYPE":0,"CLASSIFICATION_TYPE":"U","NORAD_CAT_ID":39205,"ELEMENT_SET_NO":999,"REV_AT_EPOCH":67351,"BSTAR":0.0012724881,"MEAN_MOTION_DOT":0.0001222,"MEAN_MOTION_DDOT":0}]
